AEROCUBE 12A
1 43556U 18046C   21097.80177267  .00001248  00000-0  52583-4 0  9991
2 43556  51.6400 129.8715 0007274 272.1622  87.8526 15.31341513152456